NUSAT-1 (FRESCO)        
1 41557U 16033B   22052.92422794  .00007959  00000+0  26192-3 0  9997
2 41557  97.3878 150.7357 0013350  71.0707  40.4733 15.31692359319680
BEESAT-4                
1 41619U 16040W   22052.89697869  .00008536  00000+0  31590-3 0  9997
2 41619  97.2351 106.7927 0010678 159.7119 200.4547 15.27861593303068
CAS-2T & KS-1Q          
1 41847U 16066G   22052.73827129  .00000612  00000+0  10215-3 0  9993
2 41847  98.5672 117.4718 0364457 195.7280 163.2343 14.38375173277711
NAYIF-1 (EO-88)         
1 42017U 17008BX  22052.74103354  .00008766  00000+0  29640-3 0  9998
2 42017  97.2843 120.7878 0004258 311.1750  48.9124 15.30854434279350
ZHUHAI-1 02 (CAS-4B)    
1 42759U 17034B   22052.93474495  .00002001  00000+0  13097-3 0  9993
2 42759  43.0169 248.9528 0009549 283.5595 218.8969 15.10936261258871
ZHUHAI-1 01 (CAS-4A)    
1 42761U 17034D   22052.82167917  .00001870  00000+0  12301-3 0  9992
2 42761  43.0168 248.4448 0009823 286.1934  88.0822 15.11019698258861
MAX VALIER SAT          
1 42778U 17036P   22052.91040864  .00004793  00000+0  19431-3 0  9991
2 42778  97.2234  98.0427 0011799  23.9271 336.2514 15.25039831259285
RADFXSAT (FOX-1B)       
1 43017U 17073E   22052.69534394  .00002025  00000+0  15912-3 0  9996
2 43017  97.6883 311.6150 0251250 206.2789 152.5499 14.80417302229989
FOX-1D (AO-92)          
1 43137U 18004AC  22052.84889189  .00005975  00000+0  22778-3 0  9991
2 43137  97.3800 129.2037 0009440  57.3852 302.8297 15.27029237228694
DIWATA-2B               
1 43678U 18084H   22052.89963529  .00000150  00000+0  20595-4 0  9991
2 43678  97.9503 184.9695 0009030 314.2892  45.7588 14.91925540180620
ES'HAIL 2               
1 43700U 18090A   22052.61817404  .00000147  00000+0  00000+0 0  9994
2 43700   0.0155 114.3712 0002548 252.9287  32.5411  1.00273974 11865
FOX-1CLIFF (AO-95)      
1 43770U 18099N   22052.75083599  .00001434  00000+0  13342-3 0  9992
2 43770  97.6358 122.0848 0013094 307.5978  52.4053 14.95800977175712
ITASAT 1                
1 43786U 18099AE  22052.89271072  .00001029  00000+0  96654-4 0  9997
2 43786  97.6381 123.0724 0013688 299.0898  60.8952 14.96033228175779
JY1SAT (JO-97)          
1 43803U 18099AX  22052.87589207  .00002169  00000+0  19622-3 0  9992
2 43803  97.6343 122.7934 0013399 298.1218  61.8649 14.96381878175783
UWE-4                   
1 43880U 18111E   22052.69028167  .00002362  00000+0  20782-3 0  9999
2 43880  97.6768 321.0377 0011873 358.2137   1.9040 14.97422115172370
NEXUS (FO-99)           
1 43937U 19003F   22052.67302315  .00006442  00000+0  23814-3 0  9993
2 43937  97.1470  90.6773 0021289 202.9052 157.1241 15.27828024172280
PSAT2 (NO-104)          
1 44354U 19036R   22052.88437404  .00058190  00000+0  65575-3 0  9991
2 44354  28.5233 251.1175 0278170 121.3678 241.4446 15.26280833146936
BRICSAT2 (NO-103)       
1 44355U 19036S   22052.56775756  .00154757 -41531-6  84706-3 0  9997
2 44355  28.5215 147.9900 0141437 289.6508  68.8884 15.65300357147935
JAISAT-1                
1 44419U 19038F   22052.88289732  .00004545  00000+0  24405-3 0  9996
2 44419  97.6235  22.3594 0020685 166.4715 193.7075 15.15260183145545
DUCHIFAT-3              
1 44854U 19089C   22052.72804507  .00002295  00000+0  18641-3 0  9996
2 44854  36.9667  65.9126 0008564 354.1777   5.8865 15.00168772120541
CAS-6 (TO-108)          
1 44881U 19093C   22052.82596427  .00000370  00000+0  53821-4 0  9993
2 44881  97.9022 133.6696 0014359 197.5670 162.5037 14.81573753117655
RS-44 & BREEZE-KM R/B   
1 44909U 19096E   22052.95012530  .00000003  00000+0 -25912-4 0  9993
2 44909  82.5225 307.0318 0216486 229.6527 128.5492 12.79711981100732
ORBITAL FACTORY 2 (OF-2)
1 45113U 19071C   22052.84622015  .00013285  00000+0  33977-3 0  9991
2 45113  51.6398 265.6039 0011041 119.6324 240.5761 15.39698437115537
HUSKYSAT-1 (HO-107)     
1 45119U 19071J   22052.87268348  .00011526  00000+0  29922-3 0  9996
2 45119  51.6392 265.0150 0010619 116.1116 244.0962 15.39389481115534
BY70-2                  
1 45857U 20042B   22052.80081656  .00003936  00000+0  54941-3 0  9998
2 45857  97.9645 130.8696 0012183 128.8158 231.4132 14.78196299 88369
SALSAT                  
1 46495U 20068K   22052.81381922  .00001006  00000+0  77420-4 0  9999
2 46495  97.7195 354.2168 0015362 313.9858  46.0100 15.03912693 76802
BY70-3                  
1 46839U 20079N   22052.86860204  .00012875  00000+0  35623-3 0  9997
2 46839  97.2129 126.8471 0007336  41.0613  70.4674 15.37105210 72467
RADFXSAT-2 (AO-109)     
1 47311U 21002C   22052.62288468  .00004521  00000+0  19977-3 0  9993
2 47311  60.6851  77.5669 0020668 182.6665 177.4315 15.23251454 60804
UVSQ-SAT                
1 47438U 21006AB  22052.88706242  .00003517  00000+0  19588-3 0  9992
2 47438  97.4540 114.3057 0011285 321.6631  38.3797 15.14221001 59780
DIY-1 (ARDUIQUBE)       
1 47963U 21022AH  22052.69389836  .00007591  00000+0  47220-3 0  9998
2 47963  97.5420 315.6749 0018488 165.9329 194.2419 15.09762591 49465
XW-3 (CAS-9)            
1 50466U 21131B   22052.84440756  .00000071  00000+0  37872-4 0  9996
2 50466  98.5907 130.1173 0005768 127.6140 232.5567 14.38443971  8297
